{"changeset_id": 43853325, "action": "create", "obj_type": "node", "obj_id": 4514044545, "version": 1, "timestamp": "2016-11-21T18:04:49Z", "visible": true, "user": "Metaltyty", "uid": 379182, "geom": {"lat": 44.3995149, "lon": -0.8189826}}
{"changeset_id": 43853325, "action": "create", "obj_type": "way", "obj_id": 454920812, "version": 1, "timestamp": "2016-11-21T18:04:49Z", "visible": true, "user": "Metaltyty", "uid": 379182, "refs": {"node_refs": ["2298686890", "2298686905", "2298686908", "2298686911", "2298686917", "2298686928", "2298686932", "1768311438", "1768311395", "1768311716"]}, "tags": {"highway": "unclassified"}}
{"changeset_id": 43853325, "action": "create", "obj_type": "way", "obj_id": 454920813, "version": 1, "timestamp": "2016-11-21T18:04:49Z", "visible": true, "user": "Metaltyty", "uid": 379182, "refs": {"node_refs": ["4514044545", "4115057846", "2298686893", "2298686895", "3489050762", "2298686899", "3489050761", "2298686897"]}, "tags": {"fixme": "Improve accuracy of this road - I only got a brief glance as I drove past, but it's roughly in this location", "highway": "residential", "note": "This is the very rough location of an exit on this roundabout. I saw it as I drove past (my GPS told me to take the wrong exit number). Please survey properly and improve the accuracy", "source": "survey_2016-04-11"}}
{"changeset_id": 43853325, "action": "create", "obj_type": "way", "obj_id": 454920814, "version": 1, "timestamp": "2016-11-21T18:04:49Z", "visible": true, "user": "Metaltyty", "uid": 379182, "refs": {"node_refs": ["2598342137", "4514044545"]}, "tags": {"highway": "residential", "oneway": "yes"}}
{"changeset_id": 43853325, "action": "create", "obj_type": "way", "obj_id": 454920815, "version": 1, "timestamp": "2016-11-21T18:04:50Z", "visible": true, "user": "Metaltyty", "uid": 379182, "refs": {"node_refs": ["4514044545", "3489050747"]}, "tags": {"highway": "residential", "oneway": "yes"}}
{"changeset_id": 43853325, "action": "modify", "obj_type": "node", "obj_id": 2298686890, "version": 2, "timestamp": "2016-11-21T18:04:50Z", "visible": true, "user": "Metaltyty", "uid": 379182, "geom": {"lat": 44.3999398, "lon": -0.8186757}}
{"changeset_id": 43853325, "action": "modify", "obj_type": "node", "obj_id": 4115057846, "version": 2, "timestamp": "2016-11-21T18:04:50Z", "visible": true, "user": "Metaltyty", "uid": 379182, "geom": {"lat": 44.3996044, "lon": -0.8184225}}
{"changeset_id": 43853325, "action": "modify", "obj_type": "way", "obj_id": 220780316, "version": 2, "timestamp": "2016-11-21T18:04:50Z", "visible": true, "user": "Metaltyty", "uid": 379182, "refs": {"node_refs": ["4115057846", "2298686890"]}, "tags": {"highway": "unclassified"}}
{"changeset_id": 43853325, "action": "modify", "obj_type": "way", "obj_id": 220780311, "version": 3, "timestamp": "2016-11-21T18:04:50Z", "visible": true, "user": "Metaltyty", "uid": 379182, "refs": {"node_refs": ["276752166", "2298686874", "2298686875", "2298686877", "2298686882", "2298686883", "2298686885", "4115057846"]}, "tags": {"highway": "residential"}}
{"changeset_id": 43853325, "action": "delete", "obj_type": "node", "obj_id": 2298686888, "version": 2, "timestamp": "2016-11-21T18:04:50Z", "visible": false, "user": "Metaltyty", "uid": 379182}
{"changeset_id": 43853325, "action": "delete", "obj_type": "way", "obj_id": 341825117, "version": 2, "timestamp": "2016-11-21T18:04:50Z", "visible": false, "user": "Metaltyty", "uid": 379182}
{"changeset_id": 43853325, "action": "delete", "obj_type": "way", "obj_id": 409611712, "version": 2, "timestamp": "2016-11-21T18:04:50Z", "visible": false, "user": "Metaltyty", "uid": 379182}
{"changeset_id": 43853325, "action": "delete", "obj_type": "way", "obj_id": 165275398, "version": 4, "timestamp": "2016-11-21T18:04:50Z", "visible": false, "user": "Metaltyty", "uid": 379182}
{"changeset_id": 43936296, "action": "modify", "obj_type": "way", "obj_id": 87102262, "version": 10, "timestamp": "2016-11-25T04:50:23Z", "visible": true, "user": "AtYourServicefl", "uid": 4883243, "refs": {"node_refs": ["910872683", "2111539972"]}, "tags": {"addr:city": "Rockledge", "addr:housenumber": "1267", "addr:postcode": "32955", "addr:state": "FL", "addr:street": "Rockledge Blvd.", "description": "Enjoy a stress-free moving day as At Your Service Professional Movers helps you with every stage of your residential or commercial move. ", "HFCS": "Urban Principal Arterial - Other", "hgv": "yes", "highway": "primary", "lanes": "2", "maxspeed": "45 mph", "name": "At Your Service Professional Movers", "old_ref:1945": "5", "oneway": "yes", "phone": "321-256-2525", "ref": "US 1", "scenic": "yes", "source": "https://plus.google.com/+Promoversfl/about", "source:maxspeed": "FDOT \"Maximum Speed Limits\" GIS data, updated August 27, 2011: http://www.dot.state.fl.us/planning/statistics/gis/roaddata.shtm", "surface": "asphalt", "unsigned_ref": "SR 5", "website": "http://www.promoversfl.com/"}}
{"changeset_id": 43956541, "action": "modify", "obj_type": "node", "obj_id": 1732564683, "version": 2, "timestamp": "2016-11-26T02:11:23Z", "visible": true, "user": "bowlofeggs", "uid": 2478277, "geom": {"lat": 37.5416894, "lon": -79.5837249}, "tags": {"capacity": "12", "description": "Located along the edge of North Creek, this campground offers shady campsites and a relaxed atmosphere. Prop your feet up and listen to the stream as it gurgles past, or take advantage of the fishing at your door.", "fee": "yes", "name": "North Creek Campground", "operator": "Glenwood and Pedlar Ranger Districts", "phone": "+1-540-291-2188", "tourism": "camp_site", "website": "http://www.fs.usda.gov/recarea/gwj/recarea/?recid=73857"}}
{"changeset_id": 44081078, "action": "modify", "obj_type": "node", "obj_id": 3367156759, "version": 2, "timestamp": "2016-12-01T09:03:09Z", "visible": true, "user": "Denver Cleaning Service Company", "uid": 4906857, "geom": {"lat": 39.7502034, "lon": -104.9922793}, "tags": {"addr:city": "Denver", "addr:housenumber": "1880", "addr:postcode": "80202", "addr:state": "CO", "addr:street": "Arapahoe Street", "building": "apartments", "name": "The Apartments at Denver Place"}}
{"changeset_id": 44113492, "action": "modify", "obj_type": "node", "obj_id": 17859918, "version": 26, "timestamp": "2016-12-02T12:51:25Z", "visible": true, "user": "TheTomlinsonFlowerCompany", "uid": 4912505, "geom": {"lat": 52.4081812, "lon": -1.510477}, "tags": {"is_in": "West Midlands;England;UK", "is_in:continent": "Europe", "is_in:country": "United Kingdom", "is_in:country_code": "GB", "is_in:county": "West Midlands", "name": "Coventry", "name:be": "Ковентры", "name:ja": "コヴェントリー", "name:ru": "Ковентри", "name:sr": "Ковентри", "name:uk": "Ковентрі", "name:zh": "考文垂", "name:zh_pinyin": "Kǎowénchuí", "population": "337428", "shop": "supermarket", "wikipedia": "en:Coventry"}}
{"changeset_id": 44113492, "action": "modify", "obj_type": "node", "obj_id": 3048296942, "version": 2, "timestamp": "2016-12-02T12:51:26Z", "visible": true, "user": "TheTomlinsonFlowerCompany", "uid": 4912505, "geom": {"lat": 52.4060724, "lon": -1.514509}, "tags": {"addr:city": "Coventry", "addr:housenumber": "13", "addr:postcode": "CV1 3HX", "addr:street": "City Arcade", "description": "Whatever the occasion may be, we can provide you with a personal service, great floristry design and something extra special. If you can’t see what you want on the website then give us a call on 02476 225533.", "name": "The Tomlinson Flower Company", "opening_hours": "Mon - Fri - 09.00 - 17.30 , Sat - 09.00 - 17.00 Sun- Closed", "operator": "Tomlinson", "shop": "florist", "website": "http://www.flowers-coventry.co.uk/"}}
{"changeset_id": 44258535, "action": "modify", "obj_type": "node", "obj_id": 3894575819, "version": 3, "timestamp": "2016-12-08T13:50:18Z", "visible": true, "user": "timbdesign", "uid": 3459651, "geom": {"lat": 44.9524063, "lon": -93.2915221}, "tags": {"addr:city": "Minneapolis", "addr:country": "US", "addr:housenumber": "210", "addr:postcode": "55401", "addr:state": "MN", "addr:street": "N 2nd St #020", "description": "Making SEO compliant websites is my specialty, the one I know how to make good use of for making meeting my clients marketing targets in the most persuasive and assertive ways. I use the WordPress open source ‘Content Management System’ that creates inter", "keywords": "Web Design, Minneapolis Web Design, Web Designer Minneapolis, Minneapolis Web Designer, Minneapolis WordPress Designer, Minneapolis WordPress Developer", "name": "Tim B Design", "phone": "763-221-5525", "website": "https://timbdesign.com"}}
{"changeset_id": 44462845, "action": "modify", "obj_type": "way", "obj_id": 400874911, "version": 4, "timestamp": "2016-12-17T05:19:18Z", "visible": true, "user": "AtlasAutoBodyRepair", "uid": 4980534, "refs": {"node_refs": ["4033731985", "1920650182", "123014615"]}, "tags": {"addr:city": "Northridge", "addr:housenumber": "8647", "addr:postcode": "91325-3301", "addr:state": "CA", "addr:street": "Lindley Ave", "description": "Atlas Auto Body Repair Shop also go above and beyond the call of duty. We ensure that once your vehicle leaves our doors, it is as good as new. Additionally.", "highway": "secondary", "lanes:backward": "2", "lanes:forward": "3", "maxspeed": "35 mph", "name": "Atlas Auto Body Repair Shop", "oneway": "no", "phone": "818-885-9754", "source": "https://plus.google.com/100076991173135347200/images", "tiger:cfcc": "A41", "tiger:county": "Los Angeles, CA", "tiger:name_base": "Lindley", "tiger:name_type": "Ave", "tiger:reviewed": "no", "tiger:zip_left": "91325", "tiger:zip_right": "91325", "turn:lanes:forward": "left||", "website": "https://atlasautobodyrepair.com/"}}
{"changeset_id": 44722906, "action": "modify", "obj_type": "way", "obj_id": 435724079, "version": 2, "timestamp": "2016-12-28T06:33:36Z", "visible": true, "user": "MarcJShuman", "uid": 5034959, "refs": {"node_refs": ["28289985", "4336249484"]}, "tags": {"highway": "secondary", "loc_ref": "200 S", "name": "Marc J Shuman & Associates, Ltd.", "oneway": "yes"}}
{"changeset_id": 44722906, "action": "modify", "obj_type": "node", "obj_id": 28289985, "version": 6, "timestamp": "2016-12-28T06:33:36Z", "visible": true, "user": "MarcJShuman", "uid": 5034959, "geom": {"lat": 41.8794134, "lon": -87.6307764}, "tags": {"addr:city": "Chicago", "addr:housenumber": "105", "addr:postcode": "60603", "addr:state": "IL", "addr:street": "W Adams St # 28", "description": "Marc J Shuman & Associates, Ltd. believe that the way we treat our clients is as important as our courtroom skills. Through clear communication with our law office, we keep our clients well aware of developments in their cases–where negotiations are heade", "highway": "traffic_signals", "name": "Marc J Shuman & Associates, Ltd.", "phone": "312-422-0700", "source": "https://plus.google.com/113717165969899862289/about", "website": "http://www.shumanlegal.com/"}}
{"changeset_id": 44725218, "action": "create", "obj_type": "node", "obj_id": 4576910523, "version": 1, "timestamp": "2016-12-28T09:07:10Z", "visible": true, "user": "5 STAR MOVING", "uid": 5035688, "geom": {"lat": 34.0909758, "lon": -118.3093684}, "tags": {"addr:city": "Los Angeles", "addr:housenumber": "1154", "addr:postcode": "90029", "addr:state": "CA", "addr:street": "N Western Ave", "description": "Our 5 STAR MOVING company believes in providing a positive experience to every customer. We can help you take your items from A to B and we can also help you to unpack your items as well. With commercial moves handled as well, it really isn't any wonder t", "name": "5 STAR MOVING", "phone": "(800) 535-8910", "website": "http://fivestarmoving.us/"}}
{"changeset_id": 44802035, "action": "modify", "obj_type": "node", "obj_id": 4582390873, "version": 2, "timestamp": "2016-12-31T08:54:30Z", "visible": true, "user": "P Manikandan", "uid": 5053186, "geom": {"lat": 13.2851336, "lon": 80.2367367}, "tags": {"name": "ATHIYAMMAPURAM BUS STOP"}}
{"changeset_id": 44802035, "action": "modify", "obj_type": "way", "obj_id": 462909807, "version": 2, "timestamp": "2016-12-31T08:54:30Z", "visible": true, "user": "P Manikandan", "uid": 5053186, "refs": {"node_refs": ["4582390856", "4582390857", "4582390858", "4582390859", "4582390860", "4582390861", "4582390862", "4582390863", "4582390864", "4582390865", "4582390866", "4582390867", "4582390868", "4582390869", "4582390870", "4582390871", "4582390873"]}, "tags": {"cycleway": "lane", "ford": "yes", "highway": "residential", "lanes": "1", "maxheight": "none", "maxspeed": "20", "name": "ATHIYAMMAPURAM ROAD", "surface": "sand"}}
{"changeset_id": 44802035, "action": "modify", "obj_type": "way", "obj_id": 133599492, "version": 12, "timestamp": "2016-12-31T08:54:30Z", "visible": true, "user": "P Manikandan", "uid": 5053186, "refs": {"node_refs": ["281969291", "321652112", "321652081", "276516523", "321651410", "281969121", "276516524", "321651411", "321651352", "276516525", "2607428432", "2607428440", "276516526", "2330383871", "2330383870", "321652384", "1470554557", "276516527", "3641668507", "3641668540", "276516528", "3641668541", "1470581838", "1470581846", "4582390855", "276516529", "4582390873", "276516531", "1470581853", "276516532", "4582254275", "1470581879", "4582290148", "276516533", "276516534", "281977589", "281990180", "276516535", "276516536", "276516537", "276516538", "276516539", "276516540", "276516541", "276516542", "276516543", "276516544", "1516833827", "276516545", "276516546", "276516547", "276516548", "276516549", "2487905122", "2487905139", "2487905187", "2493003937", "2493003936", "276516550"]}, "tags": {"highway": "primary", "name": "Manali Ponneri Road", "ref": "SH56"}}
{"changeset_id": 44802035, "action": "delete", "obj_type": "node", "obj_id": 4582390872, "version": 2, "timestamp": "2016-12-31T08:54:30Z", "visible": false, "user": "P Manikandan", "uid": 5053186}
